{
  "type": "FeatureCollection",
  "features": [
    {
      "type": "Feature",
      "properties": { "name": "MNK Remodeling service area" },
      "geometry": {
        "type": "Polygon",
        "coordinates": [[
          [-88.34, 41.815],
          [-88.24, 41.80],
          [-88.14, 41.79],
          [-88.07, 41.72],
          [-88.05, 41.68],
          [-88.15, 41.58],
          [-88.24, 41.56],
          [-88.36, 41.62],
          [-88.40, 41.68],
          [-88.38, 41.74],
          [-88.37, 41.80],
          [-88.34, 41.815]
        ]]
      }
    }
  ]
}
